SUOMI NPP               
1 37849U 11061A   21324.08530994  .00000013  00000-0  26890-4 0  9993
2 37849  98.7110 260.7681 0000822 103.0093  19.2731 14.19565605521482
